QIANFAN-97              
1 66039U 25233G   25363.96697240  .00000044  00000+0  44158-4 0  9994
2 66039  88.9967  60.3468 0014267 356.2356   3.8690 13.58670833 10337
QIANFAN-98              
1 66040U 25233H   25364.22678479  .00000247  00000+0  21596-3 0  9994
2 66040  88.9937  60.2056 0014114 353.9962   6.1036 13.82581742 10434
QIANFAN-99              
1 66041U 25233J   25364.28691332  .00000032  00000+0  27947-4 0  9993
2 66041  88.9945  60.3245 0014486 354.3246   5.7743 13.57808449 10378
QIANFAN-100             
1 66042U 25233K   25363.85730027  .00000018  00000+0  67411-5 0  9996
2 66042  88.9947  60.2823 0015004 359.5232   0.5912 13.67861856 10363
QIANFAN-101             
1 66043U 25233L   25364.27074795  .00000353  00000+0  13981-3 0  9990
2 66043  88.9944  60.0098 0013892 346.5667  13.5155 14.26686373 10542
QIANFAN-102             
1 66044U 25233M   25364.23650025  .00000191  00000+0  21374-3 0  9998
2 66044  88.9943  60.2991 0014283 355.7906   4.3131 13.66801029 10383
QIANFAN-103             
1 66045U 25233N   25363.62409807  .00000033  00000+0  28006-4 0  9996
2 66045  88.9929  60.3888 0013702 353.7903   6.3081 13.58809474 10282
QIANFAN-104             
1 66046U 25233P   25364.23043910  .00000212  00000+0  22128-3 0  9991
2 66046  88.9947  60.2997 0013734 359.6133   0.5017 13.71546161 10380
